NORAD_CAT_ID,OBJECT_NAME,OBJECT_TYPE,EPOCH,MEAN_MOTION,ECCENTRICITY,INCLINATION,RA_OF_ASC_NODE,ARG_OF_PERICENTER,MEAN_ANOMALY,BSTAR,MEAN_MOTION_DOT,MEAN_MOTION_DDOT,TLE_LINE0,TLE_LINE1,TLE_LINE2,SEMIMAJOR_AXIS,PERIOD,APOGEE,PERIGEE,DECAYED
51814.0,STARLINK-3599,PAYLOAD,2022-09-01 12:00:00,15.08866749,0.0001375999999999,53.2193,338.5579,78.4845,251.9017,-0.0031438,-0.0005001,0.0,0 STARLINK-3599,1 51814U 22017AY  22244.50001157 -.00050010  00000-0 -31438-2 0  9993,2 51814  53.2193 338.5579 0001376  78.4845 251.9017 15.08866749 30188,6917.799,95.436,540.616,538.712,0.0
51814.0,STARLINK-3599,PAYLOAD,2022-09-01 14:00:01,15.08858282,0.0001433,53.2193,338.1841,76.3715,346.9821,-0.0028203,-0.00044916,0.0,0 STARLINK-3599,1 51814U 22017AY  22244.58335648 -.00044916  00000-0 -28203-2 0  9990,2 51814  53.2193 338.1841 0001433  76.3715 346.9821 15.08858282  1306,6917.825,95.436,540.681,538.698,0.0
51814.0,STARLINK-3599,PAYLOAD,2022-09-01 22:00:00,15.08843499,0.0001418,53.2189,336.6869,78.4325,356.456,-0.0017582,-0.00028163,0.0,0 STARLINK-3599,1 51814U 22017AY  22244.91667824 -.00028163  00000-0 -17582-2 0  9995,2 51814  53.2189 336.6869 0001418  78.4325 356.4560 15.08843499  1307,6917.87,95.437,540.716,538.754,0.0
51814.0,STARLINK-3599,PAYLOAD,2022-09-02 04:00:00,15.08808378,0.0001394,53.2187,335.5637,85.9174,267.6668,0.0030958,0.00049283,0.0,0 STARLINK-3599,1 51814U 22017AY  22245.16667824  .00049283  00000-0  30958-2 0  9999,2 51814  53.2187 335.5637 0001394  85.9174 267.6668 15.08808378 30282,6917.977,95.44,540.806,538.878,0.0
51814.0,STARLINK-3599,PAYLOAD,2022-09-02 14:00:01,15.08832785,0.000145,53.2188,333.6952,76.2708,21.7913,0.00019299,2.784e-05,0.0,0 STARLINK-3599,1 51814U 22017AY  22245.58334491  .00002784  00000-0  19299-3 0  9997,2 51814  53.2188 333.6952 0001450  76.2708  21.7913 15.08832785  1303,6917.901999999999,95.438,540.771,538.764,0.0
51814.0,STARLINK-3599,PAYLOAD,2022-09-02 22:00:01,15.08853359,0.0001318,53.2186,332.1977,77.2706,32.4407,-0.0039848,-0.00063172,0.0,0 STARLINK-3599,1 51814U 22017AY  22245.91668981 -.00063172  00000-0 -39848-2 0  9999,2 51814  53.2186 332.1977 0001318  77.2706  32.4407 15.08853359 30392,6917.84,95.437,540.616,538.793,0.0
51814.0,STARLINK-3599,PAYLOAD,2022-09-03 06:00:00,15.08820903,0.0001312,53.2187,330.7006,83.7657,37.4656,0.0010874,0.00017051,0.0,0 STARLINK-3599,1 51814U 22017AY  22246.25001157  .00017051  00000-0  10874-2 0  9994,2 51814  53.2187 330.7006 0001312  83.7657  37.4656 15.08820903 30447,6917.939,95.439,540.711,538.896,0.0
51814.0,STARLINK-3599,PAYLOAD,2022-09-03 14:00:01,15.08818205,0.0001363,53.2187,329.2061,72.2827,60.5308,0.0011135,0.00017467,0.0,0 STARLINK-3599,1 51814U 22017AY  22246.58334491  .00017467  00000-0  11135-2 0  9992,2 51814  53.2187 329.2061 0001363  72.2827  60.5308 15.08818205  1305,6917.946999999999,95.439,540.755,538.869,0.0
51814.0,STARLINK-3599,PAYLOAD,2022-09-03 22:00:00,15.08851634,0.0001284,53.2187,327.7086,74.1541,70.2396,-0.0012905999999999,-0.00020775,0.0,0 STARLINK-3599,1 51814U 22017AY  22246.91667824 -.00020775  00000-0 -12906-2 0  9993,2 51814  53.2187 327.7086 0001284  74.1541  70.2396 15.08851634  1309,6917.845,95.437,540.5980000000002,538.822,0.0
51814.0,STARLINK-3599,PAYLOAD,2022-09-04 14:00:01,15.08822859,0.0001514,53.219,324.7169,70.3254,97.3489,0.0024327,0.00038623,0.0,0 STARLINK-3599,1 51814U 22017AY  22247.58335648  .00038623  00000-0  24327-2 0  9992,2 51814  53.2190 324.7169 0001514  70.3254  97.3489 15.08822859 30657,6917.933000000001,95.439,540.845,538.75,0.0
51814.0,STARLINK-3599,PAYLOAD,2022-09-04 20:00:01,15.08861756,0.0001475,53.2189,323.5939,70.1922,16.1048,-0.00068005,-0.00011101,0.0,0 STARLINK-3599,1 51814U 22017AY  22247.83334491 -.00011101  00000-0 -68005-3 0  9991,2 51814  53.2189 323.5939 0001475  70.1922  16.1048 15.08861756  1302,6917.814,95.436,540.6990000000002,538.659,0.0
51814.0,STARLINK-3599,PAYLOAD,2022-09-05 12:00:00,15.08858482,0.0001602,53.2193,320.6017,71.1618,38.37300000000001,-0.0017477999999999,-0.00028011,0.0,0 STARLINK-3599,1 51814U 22017AY  22248.50001157 -.00028011  00000-0 -17478-2 0  9991,2 51814  53.2193 320.6017 0001602  71.1618  38.3730 15.08858482 30787,6917.824000000001,95.436,540.797,538.581,0.0
51814.0,STARLINK-3599,PAYLOAD,2022-09-05 14:00:01,15.08845802,0.0001576999999999,53.2195,320.2279,69.5437,132.8959,-0.00055467,-9.106e-05,0.0,0 STARLINK-3599,1 51814U 22017AY  22248.58334491 -.00009106  00000-0 -55467-3 0  9994,2 51814  53.2195 320.2279 0001577  69.5437 132.8959 15.08845802  1307,6917.863,95.437,540.819,538.637,0.0
51814.0,STARLINK-3599,PAYLOAD,2022-09-05 22:00:00,15.08836271,0.0001345,53.2196,318.7303,71.7285,142.3118,-0.0026081999999999,-0.00041554,0.0,0 STARLINK-3599,1 51814U 22017AY  22248.91667824 -.00041554  00000-0 -26082-2 0  9993,2 51814  53.2196 318.7303 0001345  71.7285 142.3118 15.08836271  1300,6917.892,95.438,540.687,538.826,0.0
51814.0,STARLINK-3599,PAYLOAD,2022-09-06 12:00:00,15.08820133,0.0001403,53.2197,316.113,67.3578,76.9307,0.00036238,5.481e-05,0.0,0 STARLINK-3599,1 51814U 22017AY  22249.50001157  .00005481  00000-0  36238-3 0  9992,2 51814  53.2197 316.1130 0001403  67.3578  76.9307 15.08820133 30946,6917.941,95.439,540.7769999999998,538.836,0.0
51814.0,STARLINK-3599,PAYLOAD,2022-09-06 14:00:01,15.08804807,0.0001413,53.2197,315.7393,64.8148,172.3712,0.0028304,0.00045002,0.0,0 STARLINK-3599,1 51814U 22017AY  22249.58334491  .00045002  00000-0  28304-2 0  9997,2 51814  53.2197 315.7393 0001413  64.8148 172.3712 15.08804807  1307,6917.988,95.44,540.83,538.875,0.0
51814.0,STARLINK-3599,PAYLOAD,2022-09-06 22:00:00,15.08848619,0.0001224,53.2197,314.2416,70.2705,178.4858,-0.0032922,-0.00052314,0.0,0 STARLINK-3599,1 51814U 22017AY  22249.91667824 -.00052314  00000-0 -32922-2 0  9990,2 51814  53.2197 314.2416 0001224  70.2705 178.4858 15.08848619  1304,6917.854,95.437,540.566,538.872,0.0
51814.0,STARLINK-3599,PAYLOAD,2022-09-07 14:00:01,15.08799459,0.0001277,53.2195,311.2508,61.9252,209.9861,0.0028328,0.00045034,0.0,0 STARLINK-3599,1 51814U 22017AY  22250.58334491  .00045034  00000-0  28328-2 0  9990,2 51814  53.2195 311.2508 0001277  61.9252 209.9861 15.08799459  1304,6918.004,95.44,540.753,538.986,0.0
51814.0,STARLINK-3599,PAYLOAD,2022-09-07 20:00:01,15.08841113,0.0001171999999999,53.2192,310.1275,66.3005,124.3415,-0.0016683,-0.00026741,0.0,0 STARLINK-3599,1 51814U 22017AY  22250.83335648 -.00026741  00000-0 -16683-2 0  9990,2 51814  53.2192 310.1275 0001172  66.3005 124.3415 15.08841113 31144,6917.877,95.437,540.553,538.931,0.0
51814.0,STARLINK-3599,PAYLOAD,2022-09-07 22:00:00,15.08827247,0.0001136,53.2194,309.7531,69.1474,214.3322,7.5652e-05,9.16e-06,0.0,0 STARLINK-3599,1 51814U 22017AY  22250.91667824  .00000916  00000-0  75652-4 0  9990,2 51814  53.2194 309.7531 0001136  69.1474 214.3322 15.08827247  1300,6917.919,95.438,540.57,538.998,0.0
51814.0,STARLINK-3599,PAYLOAD,2022-09-08 14:00:01,15.08820177,0.0001248,53.2188,306.7623,61.718,244.9411,0.0029035,0.00046199,0.0,0 STARLINK-3599,1 51814U 22017AY  22251.58334491  .00046199  00000-0  29035-2 0  9990,2 51814  53.2188 306.7623 0001248  61.7180 244.9411 15.08820177  1301,6917.941,95.439,540.669,538.943,0.0
51814.0,STARLINK-3599,PAYLOAD,2022-09-08 20:00:01,15.08862988,0.0001164,53.2185,305.6388,66.7975,158.5519,-0.0015865,-0.00025464,0.0,0 STARLINK-3599,1 51814U 22017AY  22251.83334491 -.00025464  00000-0 -15865-2 0  9998,2 51814  53.2185 305.6388 0001164  66.7975 158.5519 15.08862988 31294,6917.81,95.436,540.48,538.87,0.0
51814.0,STARLINK-3599,PAYLOAD,2022-09-08 22:00:00,15.08846936,0.0001145,53.2186,305.2644,70.0951,248.1624,0.00040528,6.169e-05,0.0,0 STARLINK-3599,1 51814U 22017AY  22251.91667824  .00006169  00000-0  40528-3 0  9990,2 51814  53.2186 305.2644 0001145  70.0951 248.1624 15.08846936  1304,6917.859,95.437,540.516,538.932,0.0
51814.0,STARLINK-3599,PAYLOAD,2022-09-09 14:00:01,15.08816128,0.0001353,53.218,302.2735,63.5564,277.9149,0.0030761,0.00048976,0.0,0 STARLINK-3599,1 51814U 22017AY  22252.58334491  .00048976  00000-0  30761-2 0  9994,2 51814  53.2180 302.2735 0001353  63.5564 277.9149 15.08816128  1306,6917.953,95.439,540.754,538.882,0.0
51814.0,STARLINK-3599,PAYLOAD,2022-09-09 22:00:00,15.088345,0.0001266,53.2177,300.7755,71.4111,281.6531,0.0012698,0.00019976,0.0,0 STARLINK-3599,1 51814U 22017AY  22252.91667824  .00019976  00000-0  12698-2 0  9997,2 51814  53.2177 300.7755 0001266  71.4111 281.6531 15.08834500 31456,6917.897,95.438,540.638,538.886,0.0
51814.0,STARLINK-3599,PAYLOAD,2022-09-10 14:00:01,15.08812223,0.0001485,53.2173,297.784,63.6408,312.6296,0.0031125,0.00049558,0.0,0 STARLINK-3599,1 51814U 22017AY  22253.58334491  .00049558  00000-0  31125-2 0  9997,2 51814  53.2173 297.7840 0001485  63.6408 312.6296 15.08812223 31559,6917.965,95.439,540.8580000000002,538.803,0.0
51814.0,STARLINK-3599,PAYLOAD,2022-09-10 22:00:00,15.08822393,0.0001386999999999,53.2172,296.2862,71.3365,316.5149,0.0017346,0.00027413,0.0,0 STARLINK-3599,1 51814U 22017AY  22253.91667824  .00027413  00000-0  17346-2 0  9998,2 51814  53.2172 296.2862 0001387  71.3365 316.5149 15.08822393 31600,6917.934,95.439,540.759,538.84,0.0
51814.0,STARLINK-3599,PAYLOAD,2022-09-11 14:00:01,15.08845467,0.0001488,53.217,293.295,61.1236,349.9272,0.00037922,5.753e-05,0.0,0 STARLINK-3599,1 51814U 22017AY  22254.58334491  .00005753  00000-0  37922-3 0  9999,2 51814  53.2170 293.2950 0001488  61.1236 349.9272 15.08845467  1307,6917.864000000001,95.437,540.758,538.6990000000002,0.0
51814.0,STARLINK-3599,PAYLOAD,2022-09-11 22:00:00,15.0881616,0.0001317,53.2172,291.7967,67.9447,354.7213,0.002306,0.00036579,0.0,0 STARLINK-3599,1 51814U 22017AY  22254.91667824  .00036579  00000-0  23060-2 0  9992,2 51814  53.2172 291.7967 0001317  67.9447 354.7213 15.08816160 31758,6917.953,95.439,540.729,538.9069999999998,0.0
